C/2018 W2 (Africano),h,09/05.7312/2019,116.6158,181.8505,157.9771,1.000713,1.454717,2000,9.5,4.0
# From MPC119996
C/2018 X2 (Fitzsimmons),e,23.0697,340.8297,162.0524,151.7183,0.0005274,0.98598751,0.0000,07/08.5368/2019,2000,g 12.0,4.0
# From MPC114604
C/2018 X3 (PANSTARRS),e,43.3690,78.9224,359.8009,12.39869,0.0225756,0.78236949,9.0600,02/05.0/2020,2000,g 14.5,4.0
# From MPC118842
C/2018 Y1 (Iwamoto),e,160.4032,147.4952,358.0528,144.4314,0.0005678,0.99109210,0.0000,02/07.0341/2019,2000,g 11.5,4.0
# From MPC114605
P/2018 Y2 (Africano),e,11.6825,297.2658,162.4474,7.470088,0.0482742,0.47889093,19.2488,02/05.0/2020,2000,g 11.5,4.0
# From MPC114605
P/2019 A1 (PANSTARRS),e,13.7442,312.3009,150.8318,5.126639,0.0849092,0.56857828,40.9304,02/05.0/2020,2000,g 16.0,4.0
# From MPC114605
P/2019 A2 (ATLAS),e,14.8590,139.4623,324.1769,5.728181,0.0718917,0.38157158,31.6944,02/05.0/2020,2000,g 10.5,4.0
# From MPC114605
P/2019 A3 (PANSTARRS),e,15.3647,31.3218,325.4798,3.147561,0.1764993,0.26519114,97.4478,02/05.0/2020,2000,g 16.0,4.0
# From MPC114605
P/2019 A4 (PANSTARRS),e,13.3206,119.3008,341.6018,2.612707,0.2333824,0.08935624,99.8056,02/05.0/2020,2000,g 15.0,4.0
# From MPC118842
C/2019 A5 (PANSTARRS),e,67.5468,146.6204,356.0264,21.63195,0.0097963,0.70765336,2.3582,02/05.0/2020,2000,g  9.5,4.0
# From MPC114605
P/2019 A6 (Lemmon-PANSTARRS),e,33.2292,280.2738,156.2646,5.367385,0.0792611,0.63894692,41.5953,02/05.0/2020,2000,g 16.0,4.0
# From MPC114605
P/2019 A7 (PANSTARRS),e,17.7743,280.5243,119.3599,3.186607,0.1732652,0.16086433,131.4346,02/05.0/2020,2000,g 13.5,4.0
# From MPC115884
P/2019 A8 (PANSTARRS),e,2.9748,127.8218,21.7520,3.363291,0.1597929,0.44074369,83.0684,02/05.0/2020,2000,g 16.0,4.0
# From MPC118842
C/2019 A9 (PANSTARRS),e,84.3421,278.3681,237.8156,38.87730,0.0040659,0.96330487,0.7866,02/05.0/2020,2000,g 15.0,4.0
# From MPC114606
C/2019 B1 (Africano),e,123.3634,290.4352,174.8711,151.2784,0.0005297,0.98944325,0.0000,03/19.9011/2019,2000,g 16.0,4.0
# From MPC115885
P/2019 B2 (Groeller),e,16.8275,176.4529,358.7639,3.853740,0.1302808,0.37289235,31.5038,02/05.0/2020,2000,g 14.5,4.0
# From MPC115885
C/2019 B3 (PANSTARRS),h,01/19.5683/2021,66.5340,358.4161,263.8770,1.002921,6.824069,2000,5.5,4.0
# From MPEC 2020-AA5
C/2019 C1,e,36.0152,212.3994,319.1892,855.4830,0.0000394,0.99230702,0.0000,05/05.7335/2020,2000,g 10.0,4.0
# From MPC118842
C/2019 D1 (Flewelling),e,34.0964,231.7194,70.4871,138.6998,0.0006034,0.98862467,0.0000,05/11.8546/2019,2000,g 13.0,4.0
# From MPC119997
C/2019 E3 (ATLAS),h,11/11.6433/2023,84.2767,347.2197,280.5854,1.004940,10.316171,2000,2.5,4.0
# From MPC119997
C/2019 F1 (ATLAS-Africano),h,06/22.7753/2021,54.1742,38.7259,251.1011,1.003276,3.596469,2000,5.5,4.0
# From MPC119997
C/2019 F2 (ATLAS),e,19.1881,175.8647,10.9683,16.57188,0.0146099,0.86525608,2.1780,02/05.0/2020,2000,g 12.0,4.0
# From MPEC 2020-AA5
A/2019 G2,e,159.2116,208.1453,82.6526,718.9166,0.0000511,0.99681277,0.0000,12/10.0593/2019,2000,g 16.5,2.0
# From MPC118094
A/2019 G4,h,09/15.7197/2018,138.3819,130.4667,287.8761,1.000565,5.858704,2000,13.0,2.0
# From MPC114607
P/2019 GG21 (PANSTARRS),e,6.0839,340.6031,208.3310,7.464453,0.0483289,0.47281269,13.0961,02/05.0/2020,2000,g 12.0,4.0
# From MPC115885
C/2019 H1 (NEOWISE),e,104.5790,269.1857,19.2854,226.3563,0.0002894,0.99184945,0.0000,04/27.7338/2019,2000,g 15.5,4.0
# From MPC118842
C/2019 J1 (Lemmon),e,24.5506,98.0883,167.7767,70.31742,0.0016715,0.96475238,0.5044,02/05.0/2020,2000,g 12.0,4.0
# From MPC115885
C/2019 J2 (Palomar),e,105.1352,25.4712,98.7077,701.3416,0.0000531,0.99753762,0.0000,07/19.7271/2019,2000,g 13.0,4.0
# From MPC117071
C/2019 J3 (ATLAS),e,131.4138,270.5177,16.5469,32334,0.0000002,0.99992660,0.0000,08/01.8686/2019,2000,g 13.5,4.0
# From MPC117071
C/2019 JU6 (ATLAS),e,148.2929,21.7365,94.8692,330.8759,0.0001638,0.99381983,0.0000,05/31.8678/2019,2000,g 14.5,4.0
# From MPC119997
C/2019 K1 (ATLAS),e,87.1496,73.3750,265.7053,10569,0.0000009,0.99980956,0.0000,02/12.9602/2020,2000,g 10.0,4.0
# From MPC119997
C/2019 K4 (Ye),e,105.3035,180.1651,139.7741,2092,0.0000103,0.99891984,0.0000,06/16.4158/2019,2000,g 12.5,4.0
# From MPC119997
C/2019 K5 (Young),e,15.3148,177.1848,174.9259,153.0283,0.0005207,0.98670104,0.0000,06/22.7686/2019,2000,g 13.0,4.0
# From MPC117071
A/2019 K6,e,132.3755,42.9396,187.6038,1567,0.0000159,0.99749254,0.0000,05/20.1063/2020,2000,g 13.6,2.0
# From MPC118095
C/2019 K7 (Smith),h,06/16.8292/2020,103.5076,307.9172,27.2812,1.002169,4.474989,2000,6.2,4.0
# From MPC119997
C/2019 K8 (ATLAS),e,93.2225,291.0452,85.3611,1612,0.0000152,0.99801765,0.0000,07/21.2606/2019,2000,g 11.5,4.0
# From MPC118095
C/2019 L1 (PANSTARRS),e,9.9934,254.4079,49.9268,9.834181,0.0319593,0.70609777,5.6793,02/05.0/2020,2000,g 13.5,4.0
# From MPC115886
C/2019 L2 (NEOWISE),e,152.1838,12.5725,18.7516,24.98604,0.0078915,0.93516118,2.4389,02/05.0/2020,2000,g 16.0,4.0
# From MPC119997
C/2019 L3 (ATLAS),h,01/09.9282/2022,48.3664,290.7858,171.6739,1.000324,3.552735,2000,4.5,4.0
# From MPC118095
C/2019 LB7 (Kleyna),e,164.2343,3.2962,335.9294,35.17259,0.0047250,0.92939278,1.4870,02/05.0/2020,2000,g 17.0,4.0
# From MPC118843
P/2019 M2 (ATLAS),e,12.2818,307.6013,332.5304,3.025533,0.1872843,0.64848078,42.5759,02/05.0/2020,2000,g 21.2,4.0
# From MPC118095
C/2019 M3 (ATLAS),h,01/03.0288/2019,99.4390,154.8957,87.9421,1.002033,2.418197,2000,12.2,4.0
# From MPC119997
C/2019 N1 (ATLAS),e,82.4243,13.5784,193.4434,16646,0.0000005,0.99989760,0.0000,12/01.7944/2020,2000,g  7.5,4.0
# From MPEC 2020-AA5
A/2019 O2,e,93.2866,48.3432,129.6461,57.54539,0.0022578,0.83173849,357.3874,02/05.0/2020,2000,g  9.5,2.0
# From MPC118843
A/2019 O3,h,03/07.1228/2021,89.8139,300.3804,60.0045,1.001371,8.819394,2000,10.0,2.0
# From MPC117072
A/2019 O4,e,115.0849,354.9186,61.8040,32.88197,0.0052272,0.88916599,359.9743,02/05.0/2020,2000,g 15.5,2.0
# From MPEC 2020-AA5
A/2019 Q1,h,07/19.7152/2020,155.7204,42.3374,55.9236,1.000539,4.996757,2000,12.5,2.0
# From MPC117072
A/2019 Q2,e,159.0272,187.9723,176.2819,58.22547,0.0022184,0.97839738,0.0000,07/22.3736/2019,2000,g 18.0,2.0
# From MPC117072
C/2019 Q3 (PANSTARRS),h,08/20.9154/2018,65.5320,151.3253,152.6356,1.004628,7.250628,2000,8.5,4.0
# From MPC117072
P/2019 S2 (PANSTARRS),e,10.4732,93.1265,216.7317,4.734207,0.0956827,0.20679058,33.4153,02/05.0/2020,2000,g 13.5,4.0
# From MPC118096
P/2019 S3 (PANSTARRS),e,8.6925,150.1674,212.9626,3.413799,0.1562597,0.47072796,25.4519,02/05.0/2020,2000,g 18.3,4.0
# From MPEC 2020-AA5
A/2019 S4,e,92.0240,63.1684,71.3557,240.4840,0.0002643,0.98568866,0.0000,04/07.9441/2020,2000,g 14.5,2.0
# From MPC118843
A/2019 T1,e,120.8682,6.9490,90.9928,38.20143,0.0041743,0.88790618,358.5638,02/05.0/2020,2000,g 13.0,2.0
# From MPEC 2020-AA5
A/2019 T2,e,111.4654,155.6392,239.3943,1836,0.0000125,0.99855922,0.0000,04/22.3354/2021,2000,g 12.5,2.0
# From MPC119998
C/2019 T3 (ATLAS),e,121.8621,139.5124,112.2511,13522,0.0000006,0.99956025,0.0000,03/02.4038/2021,2000,g  6.8,4.0
# From MPC119998
C/2019 T4 (ATLAS),e,53.6166,199.9826,351.2023,1058,0.0000286,0.99599057,0.0000,06/09.2985/2022,2000,g  5.0,4.0
# From MPC119998
P/2019 T5 (ATLAS),e,33.4226,247.6966,189.6188,8.017499,0.0434156,0.80930416,8.1559,02/05.0/2020,2000,g 15.0,4.0
# From MPC119998
P/2019 T6 (PANSTARRS),e,18.6967,71.3111,328.9101,5.432736,0.0778352,0.62230330,6.9459,02/05.0/2020,2000,g 15.5,4.0
# From MPC118096
P/2019 U4 (PANSTARRS),e,11.6908,200.0375,180.9575,3.519996,0.1492419,0.47527055,20.8411,02/05.0/2020,2000,g 19.0,4.0
# From MPC118844
A/2019 U5,h,03/30.5493/2023,113.5285,2.7071,181.6222,1.000282,3.621296,2000,10.0,2.0
# From MPEC 2020-AA5
A/2019 U6,e,61.0020,235.7067,329.6573,438.2993,0.0001074,0.99791403,0.0000,06/18.8213/2020,2000,g 14.5,2.0
# From MPC119998
C/2019 V1 (Borisov),e,61.8645,83.2063,51.2009,2674,0.0000071,0.99884188,0.0000,07/16.5771/2020,2000,g 11.0,4.0
# From MPC119998
P/2019 V2 (Groeller),e,11.8019,189.1718,336.3586,7.520005,0.0477944,0.33291406,347.5265,02/05.0/2020,2000,g 10.0,4.0
# From MPC119998
P/2019 W1 (PANSTARRS),e,23.4606,35.4213,18.7394,4.550633,0.1015304,0.26609387,27.7244,02/05.0/2020,2000,g 12.9,4.0
# From MPC119998
P/2019 X1 (Pruyne),e,10.2451,43.7201,36.6456,6.177898,0.0641864,0.30339307,12.8249,02/05.0/2020,2000,g 10.4,4.0
# From MPEC 2020-AC1
P/2019 X2 (PANSTARRS),e,15.8811,250.8555,213.5571,3.642619,0.1417697,0.49923403,8.1791,02/05.0/2020,2000,g 18.0,4.0
# From MPC119999
C/2019 Y1 (ATLAS),e,73.2514,31.5194,57.9771,86.84725,0.0012178,0.99042479,0.0000,03/15.5989/2020,2000,g 13.7,4.0
# From MPC119999
P/2019 Y2 (Fuls),e,4.9020,81.0806,91.7191,3.528868,0.1486794,0.39619220,0.8004,02/05.0/2020,2000,g 13.2,4.0
# From MPEC 2020-AA9
P/2019 Y3 (Catalina),e,24.6349,139.3825,2.2682,2.998901,0.1897845,0.69588754,10.1610,02/05.0/2020,2000,g 18.5,4.0
# From MPEC 2020-AB2
C/2019 Y4 (ATLAS),e,45.2792,120.4728,177.5419,188.7369,0.0003801,0.99866318,0.0000,05/30.9925/2020,2000,g 13.0,4.0
# From MPEC 2020-AC0
A/2019 Y5,e,82.8374,51.7758,303.4992,772.7045,0.0000459,0.99363996,0.0000,08/18.1451/2019,2000,g 14.0,2.0
# From MPEC 2020-AB9
A/2020 A1,h,12/06.4022/2019,149.2994,119.0127,304.4528,1.000048,1.690654,2000,18.0,2.0
# From MPEC 2020-AD2
C/2020 A2 (Iwamoto),p,01/08.2147/2020,120.7196,67.9284,0.980023,286.2863,2000,13.5,4.0
# From MPEC 2020-B60
C/2020 A3 (ATLAS),p,06/26.6419/2019,146.6979,268.1868,5.763035,120.8057,2000,8.0,4.0
# From  98, 1083
1P/Halley,e,162.3163,58.1718,111.1092,17.86873,0.0130486,0.96628444,162.2963,02/05.0/2020,2000,g  4.0,6.0
# From MPC118097
2P/Encke,e,11.7648,334.5533,186.5625,2.215207,0.2989390,0.84800151,317.5968,02/05.0/2020,2000,g 11.5,6.0
# From MPEC 2015-A10
4P/Faye,e,8.0205,193.4669,206.7107,3.822158,0.1318989,0.57890019,283.2614,02/05.0/2020,2000,g  8.0,6.0
# From MPEC 2015-S97
6P/d'Arrest,e,19.5098,138.9289,178.0762,3.498526,0.1506179,0.61246427,271.0101,02/05.0/2020,2000,g  9.0,4.0
# From MPEC 2015-E14
7P/Pons-Winnecke,e,22.3647,93.3808,172.5559,3.415886,0.1561166,0.63854143,285.5222,02/05.0/2020,2000,g  9.0,4.0
# From MPC 75715
